[{"OBJECT_NAME":"FENGYUN 3A","OBJECT_ID":"2008-026A","EPOCH":"2026-03-09T17:38:43.829664","MEAN_MOTION":14.1954647,"ECCENTRICITY":0.0009678,"INCLINATION":98.6797,"RA_OF_ASC_NODE":11.4771,"ARG_OF_PERICENTER":58.1455,"MEAN_ANOMALY":302.0662,"EPHEMERIS_TYPE":0,"CLASSIFICATION_TYPE":"U","NORAD_CAT_ID":32958,"ELEMENT_SET_NO":999,"REV_AT_EPOCH":92129,"BSTAR":9.6161117e-5,"MEAN_MOTION_DOT":1.6e-6,"MEAN_MOTION_DDOT":0},{"OBJECT_NAME":"DELTA 1 DEB","OBJECT_ID":"1978-026EB","EPOCH":"2026-03-09T06:29:31.079904","MEAN_MOTION":14.27245402,"ECCENTRICITY":0.00908949,"INCLINATION":98.8339,"RA_OF_ASC_NODE":83.3238,"ARG_OF_PERICENTER":169.9983,"MEAN_ANOMALY":252.0943,"EPHEMERIS_TYPE":0,"CLASSIFICATION_TYPE":"U","NORAD_CAT_ID":12283,"ELEMENT_SET_NO":999,"REV_AT_EPOCH":31231,"BSTAR":0.00010693103,"MEAN_MOTION_DOT":2.28e-6,"MEAN_MOTION_DDOT":0}]
